[{"OBJECT_NAME":"STARLINK-30861","OBJECT_ID":"2023-171A","EPOCH":"2026-03-09T22:00:01.999584","MEAN_MOTION":15.22507727,"ECCENTRICITY":0.00017126,"INCLINATION":42.9995,"RA_OF_ASC_NODE":283.6227,"ARG_OF_PERICENTER":267.5987,"MEAN_ANOMALY":75.0186,"EPHEMERIS_TYPE":0,"CLASSIFICATION_TYPE":"U","NORAD_CAT_ID":58230,"ELEMENT_SET_NO":999,"REV_AT_EPOCH":572,"BSTAR":0.00089230355,"MEAN_MOTION_DOT":0.00020896,"MEAN_MOTION_DDOT":0},{"OBJECT_NAME":"NOAA 16 DEB","OBJECT_ID":"2000-055JP","EPOCH":"2026-03-07T06:03:41.025888","MEAN_MOTION":15.14327742,"ECCENTRICITY":0.002834,"INCLINATION":98.88,"RA_OF_ASC_NODE":0.7915,"ARG_OF_PERICENTER":107.2535,"MEAN_ANOMALY":253.1797,"EPHEMERIS_TYPE":0,"CLASSIFICATION_TYPE":"U","NORAD_CAT_ID":41370,"ELEMENT_SET_NO":999,"REV_AT_EPOCH":54059,"BSTAR":0.01119,"MEAN_MOTION_DOT":0.00212823,"MEAN_MOTION_DDOT":0}]
